STARLINK-2022           
1 47643U 21012Z   23363.14907732  .00018462  00000+0  12550-2 0  9995
2 47643  53.0546  49.8783 0001458  96.3298 263.7857 15.06402944158932
